[{"OBJECT_NAME":"STARLINK-2101","OBJECT_ID":"2021-005AJ","EPOCH":"2026-03-09T22:00:01.999584","MEAN_MOTION":15.16034978,"ECCENTRICITY":0.00012406,"INCLINATION":53.0957,"RA_OF_ASC_NODE":35.4622,"ARG_OF_PERICENTER":102.7891,"MEAN_ANOMALY":195.0819,"EPHEMERIS_TYPE":0,"CLASSIFICATION_TYPE":"U","NORAD_CAT_ID":47381,"ELEMENT_SET_NO":999,"REV_AT_EPOCH":573,"BSTAR":0.052963497,"MEAN_MOTION_DOT":0.0111761,"MEAN_MOTION_DDOT":0},{"OBJECT_NAME":"NOAA 16 DEB","OBJECT_ID":"2000-055FH","EPOCH":"2026-03-09T12:30:03.934368","MEAN_MOTION":15.16827851,"ECCENTRICITY":0.00080503,"INCLINATION":98.9144,"RA_OF_ASC_NODE":269.3218,"ARG_OF_PERICENTER":278.4203,"MEAN_ANOMALY":81.6113,"EPHEMERIS_TYPE":0,"CLASSIFICATION_TYPE":"U","NORAD_CAT_ID":41257,"ELEMENT_SET_NO":999,"REV_AT_EPOCH":52995,"BSTAR":0.010284054,"MEAN_MOTION_DOT":0.00208024,"MEAN_MOTION_DDOT":0}]
